CCSDS_OMM_VERS,COMMENT,CREATION_DATE,ORIGINATOR,OBJECT_NAME,OBJECT_ID,CENTER_NAME,REF_FRAME,TIME_SYSTEM,MEAN_ELEMENT_THEORY,EPOCH,MEAN_MOTION,ECCENTRICITY,INCLINATION,RA_OF_ASC_NODE,ARG_OF_PERICENTER,MEAN_ANOMALY,EPHEMERIS_TYPE,CLASSIFICATION_TYPE,NORAD_CAT_ID,ELEMENT_SET_NO,REV_AT_EPOCH,BSTAR,MEAN_MOTION_DOT,MEAN_MOTION_DDOT,SEMIMAJOR_AXIS,PERIOD,APOAPSIS,PERIAPSIS,OBJECT_TYPE,RCS_SIZE,COUNTRY_CODE,LAUNCH_DATE,SITE,DECAY_DATE,FILE,GP_ID,TLE_LINE0,TLE_LINE1,TLE_LINE2
2,GENERATED VIA SPACE-TRACK.ORG API,2005-06-09T11:44:05,18 SPCS,LEASAT 5,1990-002B,EARTH,TEME,UTC,SGP4,1991-03-07T06:23:26.487456,1.00273969,0.0002599,2.9059,332.0461,100.0346,259.8924,0,U,20410,999,331,0.0,-1.8e-07,0,42164.146,1436.065,35796.97,35775.053,PAYLOAD,MEDIUM,US,1990-01-09,AFETR,,145815,49594988,0 LEASAT 5,1 20410U 90002  B 91066.26627879 -.00000018 +00000-0 +00000-4 0  9991,2 20410 002.9059 332.0461 0002599 100.0346 259.8924 01.00273969003315
2,GENERATED VIA SPACE-TRACK.ORG API,2004-08-17T14:46:18,18 SPCS,LEASAT 5,1990-002B,EARTH,TEME,UTC,SGP4,1991-03-10T06:12:27.366911,1.00274345,0.0001944,2.8989,332.1465,98.1577,261.905,0,U,20410,999,334,9.9999e-05,-3.3e-07,0,42164.041,1436.06,35794.102,35777.709,PAYLOAD,MEDIUM,US,1990-01-09,AFETR,,34775,18413961,0 LEASAT 5,1 20410U 90002  B 91069.25865008 -.00000033 +00000-0 +99999-4 0  9993,2 20410 002.8989 332.1465 0001944 098.1577 261.9050 01.00274345003343
2,GENERATED VIA SPACE-TRACK.ORG API,2005-06-09T11:44:05,18 SPCS,LEASAT 5,1990-002B,EARTH,TEME,UTC,SGP4,1991-03-10T06:12:27.367776,1.00274345,0.0001944,2.8989,332.1464,98.1576,261.905,0,U,20410,999,334,0.0,-1.6e-07,0,42164.041,1436.06,35794.102,35777.709,PAYLOAD,MEDIUM,US,1990-01-09,AFETR,,145815,49594989,0 LEASAT 5,1 20410U 90002  B 91069.25865009 -.00000016 +00000-0 +00000-4 0  9990,2 20410 002.8989 332.1464 0001944 098.1576 261.9050 01.00274345003341
2,GENERATED VIA SPACE-TRACK.ORG API,2004-08-17T14:46:18,18 SPCS,LEASAT 5,1990-002B,EARTH,TEME,UTC,SGP4,1991-03-11T06:08:21.776639,1.00274424,0.0002135,2.9002,332.1866,98.2735,261.7154,0,U,20410,999,335,9.9999e-05,-3.3e-07,0,42164.019,1436.059,35794.886,35776.882,PAYLOAD,MEDIUM,US,1990-01-09,AFETR,,34775,18413962,0 LEASAT 5,1 20410U 90002  B 91070.25580760 -.00000033 +00000-0 +99999-4 0  9994,2 20410 002.9002 332.1866 0002135 098.2735 261.7154 01.00274424003357
2,GENERATED VIA SPACE-TRACK.ORG API,2005-06-09T11:44:05,18 SPCS,LEASAT 5,1990-002B,EARTH,TEME,UTC,SGP4,1991-03-11T06:08:21.777504,1.00274425,0.0002135,2.9002,332.1865,98.2735,261.7154,0,U,20410,999,335,0.0,-1.6e-07,0,42164.018,1436.059,35794.885,35776.881,PAYLOAD,MEDIUM,US,1990-01-09,AFETR,,145815,49594990,0 LEASAT 5,1 20410U 90002  B 91070.25580761 -.00000016 +00000-0 +00000-4 0  9991,2 20410 002.9002 332.1865 0002135 098.2735 261.7154 01.00274425003357
2,GENERATED VIA SPACE-TRACK.ORG API,2004-08-17T14:46:18,18 SPCS,LEASAT 5,1990-002B,EARTH,TEME,UTC,SGP4,1991-03-16T05:47:51.959039,1.00273038,0.0003654,2.8834,332.195,59.9842,299.7998,0,U,20410,999,340,9.9999e-05,-3.3e-07,0,42164.407,1436.078,35801.679,35770.865,PAYLOAD,MEDIUM,US,1990-01-09,AFETR,,34775,18413963,0 LEASAT 5,1 20410U 90002  B 91075.24157360 -.00000033 +00000-0 +99999-4 0  9994,2 20410 002.8834 332.1950 0003654 059.9842 299.7998 01.00273038003406
2,GENERATED VIA SPACE-TRACK.ORG API,2004-08-17T14:46:18,18 SPCS,LEASAT 5,1990-002B,EARTH,TEME,UTC,SGP4,1991-03-16T05:48:20.777760,1.00272583,0.0011888,2.8808,332.1964,83.2918,276.5085,0,U,20410,999,340,9.9999e-05,-3.2e-07,0,42164.535,1436.085,35836.525,35736.275,PAYLOAD,MEDIUM,US,1990-01-09,AFETR,,34775,18413964,0 LEASAT 5,1 20410U 90002  B 91075.24190715 -.00000032 +00000-0 +99999-4 0  9994,2 20410 002.8808 332.1964 0011888 083.2918 276.5085 01.00272583003408
2,GENERATED VIA SPACE-TRACK.ORG API,2005-06-09T11:44:05,18 SPCS,LEASAT 5,1990-002B,EARTH,TEME,UTC,SGP4,1991-03-17T05:45:00.411840,1.00272085,0.0007919,2.8817,332.1995,81.4103,278.5727,0,U,20410,999,341,0.0,-1.7e-07,0,42164.674,1436.092,35819.93,35753.149,PAYLOAD,MEDIUM,US,1990-01-09,AFETR,,145815,49594991,0 LEASAT 5,1 20410U 90002  B 91076.23958810 -.00000017 +00000-0 +00000-4 0  9990,2 20410 002.8817 332.1995 0007919 081.4103 278.5727 01.00272085003411
2,GENERATED VIA SPACE-TRACK.ORG API,2004-08-17T14:46:18,18 SPCS,LEASAT 5,1990-002B,EARTH,TEME,UTC,SGP4,1991-03-17T05:45:00.438623,1.00272085,0.0007919,2.8817,332.1996,81.4104,278.5727,0,U,20410,999,341,9.9999e-05,-3.2e-07,0,42164.674,1436.092,35819.93,35753.149,PAYLOAD,MEDIUM,US,1990-01-09,AFETR,,34775,18413965,0 LEASAT 5,1 20410U 90002  B 91076.23958841 -.00000032 +00000-0 +99999-4 0  9996,2 20410 002.8817 332.1996 0007919 081.4104 278.5727 01.00272085003413
2,GENERATED VIA SPACE-TRACK.ORG API,2005-06-09T11:44:05,18 SPCS,LEASAT 5,1990-002B,EARTH,TEME,UTC,SGP4,1991-03-18T05:40:39.345599,1.00272049,0.0018155,2.8986,332.299,96.325,263.3366,0,U,20410,999,342,0.0,-1.8e-07,0,42164.684,1436.093,35863.099,35709.999,PAYLOAD,MEDIUM,US,1990-01-09,AFETR,,145815,49594992,0 LEASAT 5,1 20410U 90002  B 91077.23656650 -.00000018 +00000-0 +00000-4 0  9999,2 20410 002.8986 332.2990 0018155 096.3250 263.3366 01.00272049003428
2,GENERATED VIA SPACE-TRACK.ORG API,2005-06-09T11:44:05,18 SPCS,LEASAT 5,1990-002B,EARTH,TEME,UTC,SGP4,1991-03-19T05:38:00.525120,1.002728,0.000648,2.9031,332.43,278.5945,81.509,0,U,20410,999,343,0.0,-1.5e-07,0,42164.474,1436.082,35813.661,35759.016,PAYLOAD,MEDIUM,US,1990-01-09,AFETR,,145815,49594993,0 LEASAT 5,1 20410U 90002  B 91078.23472830 -.00000015 +00000-0 +00000-4 0  9993,2 20410 002.9031 332.4300 0006480 278.5945 081.5090 01.00272800003430
2,GENERATED VIA SPACE-TRACK.ORG API,2004-08-17T14:46:18,18 SPCS,LEASAT 5,1990-002B,EARTH,TEME,UTC,SGP4,1991-03-19T05:38:00.551904,1.0027289,0.0003588,2.9025,332.4102,279.9437,80.1515,0,U,20410,999,343,9.9999e-05,-3.4e-07,0,42164.449,1436.081,35801.442,35771.185,PAYLOAD,MEDIUM,US,1990-01-09,AFETR,,34775,18413966,0 LEASAT 5,1 20410U 90002  B 91078.23472861 -.00000034 +00000-0 +99999-4 0  9993,2 20410 002.9025 332.4102 0003588 279.9437 080.1515 01.00272890003436
2,GENERATED VIA SPACE-TRACK.ORG API,2005-06-09T11:44:05,18 SPCS,LEASAT 5,1990-002B,EARTH,TEME,UTC,SGP4,1991-03-21T05:28:32.605824,1.00273001,2.87e-05,2.9031,332.414,236.3634,123.2957,0,U,20410,999,345,0.0,-1.7e-07,0,42164.418,1436.079,35787.493,35785.072,PAYLOAD,MEDIUM,US,1990-01-09,AFETR,,145815,49594994,0 LEASAT 5,1 20410U 90002  B 91080.22815516 -.00000017 +00000-0 +00000-4 0  9999,2 20410 002.9031 332.4140 0000287 236.3634 123.2957 01.00273001003450
2,GENERATED VIA SPACE-TRACK.ORG API,2005-06-09T11:44:05,18 SPCS,LEASAT 5,1990-002B,EARTH,TEME,UTC,SGP4,1991-03-24T05:17:16.994111,1.00273162,0.000872,2.8984,332.3746,101.9915,257.7543,0,U,20410,999,348,0.0,-1.7e-07,0,42164.372,1436.077,35823.005,35749.47,PAYLOAD,MEDIUM,US,1990-01-09,AFETR,,145815,49594995,0 LEASAT 5,1 20410U 90002  B 91083.22033558 -.00000017 +00000-0 +00000-4 0  9990,2 20410 002.8984 332.3746 0008720 101.9915 257.7543 01.00273162003481
2,GENERATED VIA SPACE-TRACK.ORG API,2005-06-09T11:44:05,18 SPCS,LEASAT 5,1990-002B,EARTH,TEME,UTC,SGP4,1991-03-25T05:14:02.315903,1.00273132,0.0008697,2.898,332.3674,103.3978,256.5289,0,U,20410,999,349,0.0,-1.6e-07,0,42164.381,1436.077,35822.916,35749.575,PAYLOAD,MEDIUM,US,1990-01-09,AFETR,,145815,49594996,0 LEASAT 5,1 20410U 90002  B 91084.21808236 -.00000016 +00000-0 +00000-4 0  9992,2 20410 002.8980 332.3674 0008697 103.3978 256.5289 01.00273132003497
2,GENERATED VIA SPACE-TRACK.ORG API,2005-06-09T11:44:05,18 SPCS,LEASAT 5,1990-002B,EARTH,TEME,UTC,SGP4,1991-03-26T05:09:58.061375,1.00273015,0.001091,2.8936,332.3602,100.8896,258.9829,0,U,20410,999,350,0.0,-1.6e-07,0,42164.414,1436.079,35832.28,35740.277,PAYLOAD,MEDIUM,US,1990-01-09,AFETR,,145815,49594997,0 LEASAT 5,1 20410U 90002  B 91085.21525534 -.00000016 +00000-0 +00000-4 0  9990,2 20410 002.8936 332.3602 0010910 100.8896 258.9829 01.00273015003509
2,GENERATED VIA SPACE-TRACK.ORG API,2005-06-09T11:44:05,18 SPCS,LEASAT 5,1990-002B,EARTH,TEME,UTC,SGP4,1991-03-27T05:06:19.972224,1.00272785,0.0012446,2.8869,332.4,100.0521,259.8318,0,U,20410,999,351,0.0,-1.6e-07,0,42164.478,1436.082,35838.821,35733.865,PAYLOAD,MEDIUM,US,1990-01-09,AFETR,,145815,49594998,0 LEASAT 5,1 20410U 90002  B 91086.21273116 -.00000016 +00000-0 +00000-4 0  9997,2 20410 002.8869 332.4000 0012446 100.0521 259.8318 01.00272785003517
2,GENERATED VIA SPACE-TRACK.ORG API,2004-08-17T14:46:18,18 SPCS,LEASAT 5,1990-002B,EARTH,TEME,UTC,SGP4,1991-03-29T04:58:07.747103,1.00272825,0.0013827,2.8875,332.3843,102.1338,257.6691,0,U,20410,999,353,9.9999e-05,-3.2e-07,0,42164.467,1436.082,35844.633,35728.031,PAYLOAD,MEDIUM,US,1990-01-09,AFETR,,34775,18413967,0 LEASAT 5,1 20410U 90002  B 91088.20703411 -.00000032 +00000-0 +99999-4 0  9997,2 20410 002.8875 332.3843 0013827 102.1338 257.6691 01.00272825003538
2,GENERATED VIA SPACE-TRACK.ORG API,2004-08-17T14:46:18,18 SPCS,LEASAT 5,1990-002B,EARTH,TEME,UTC,SGP4,1991-03-30T04:54:10.602432,1.00272451,0.0011297,2.8874,332.3863,103.2574,256.5554,0,U,20410,999,354,9.9999e-05,-3.2e-07,0,42164.572,1436.087,35834.07,35738.803,PAYLOAD,MEDIUM,US,1990-01-09,AFETR,,34775,18413968,0 LEASAT 5,1 20410U 90002  B 91089.20428938 -.00000032 +00000-0 +99999-4 0  9996,2 20410 002.8874 332.3863 0011297 103.2574 256.5554 01.00272451003544
2,GENERATED VIA SPACE-TRACK.ORG API,2005-06-09T11:44:05,18 SPCS,LEASAT 5,1990-002B,EARTH,TEME,UTC,SGP4,1991-03-31T04:49:59.923199,1.0027215,0.0009087,2.8868,332.3891,103.9212,255.8413,0,U,20410,999,355,0.0,-1.7e-07,0,42164.656,1436.091,35824.836,35748.206,PAYLOAD,MEDIUM,US,1990-01-09,AFETR,,145815,49594999,0 LEASAT 5,1 20410U 90002  B 91090.20138800 -.00000017 +00000-0 +00000-4 0  9992,2 20410 002.8868 332.3891 0009087 103.9212 255.8413 01.00272150003551
